{
    "links": {
        "self": "http://www.neowsapp.com/rest/v1/neo/3826672?api_key=iIulBulltgU6a56xZRHN4H3l9WmuAYTsLGpBGhQ2"
    },
    "id": "3826672",
    "neo_reference_id": "3826672",
    "name": "(2018 PN9)",
    "designation": "2018 PN9",
    "nasa_jpl_url": "http://ssd.jpl.nasa.gov/sbdb.cgi?sstr=3826672",
    "absolute_magnitude_h": 24.7,
    "estimated_diameter": {
        "kilometers": {
            "estimated_diameter_min": 0.0305179233,
            "estimated_diameter_max": 0.0682401509
        },
        "meters": {
            "estimated_diameter_min": 30.5179232594,
            "estimated_diameter_max": 68.2401509401
        },
        "miles": {
            "estimated_diameter_min": 0.0189629525,
            "estimated_diameter_max": 0.0424024508
        },
        "feet": {
            "estimated_diameter_min": 100.1244233463,
            "estimated_diameter_max": 223.8850168104
        }
    },
    "is_potentially_hazardous_asteroid": false,
    "close_approach_data": [
        {
            "close_approach_date": "2015-03-13",
            "close_approach_date_full": "2015-Mar-13 06:42",
            "epoch_date_close_approach": 1426228920000,
            "relative_velocity": {
                "kilometers_per_second": "10.554733161",
                "kilometers_per_hour": "37997.0393794866",
                "miles_per_hour": "23609.8826077704"
            },
            "miss_distance": {
                "astronomical": "0.4717251415",
                "lunar": "183.5010800435",
                "kilometers": "70569076.393848605",
                "miles": "43849590.738596549"
            },
            "orbiting_body": "Earth"
        },
        {
            "close_approach_date": "2018-08-09",
            "close_approach_date_full": "2018-Aug-09 16:10",
            "epoch_date_close_approach": 1533831000000,
            "relative_velocity": {
                "kilometers_per_second": "10.6629449976",
                "kilometers_per_hour": "38386.6019914025",
                "miles_per_hour": "23851.9416651578"
            },
            "miss_distance": {
                "astronomical": "0.0589647949",
                "lunar": "22.9373052161",
                "kilometers": "8821007.722026863",
                "miles": "5481120.0355541894"
            },
            "orbiting_body": "Earth"
        }
    ],
    "orbital_data": {
        "orbit_id": "2",
        "orbit_determination_date": "2018-08-13 06:53:22",
        "first_observation_date": "2018-08-07",
        "last_observation_date": "2018-08-12",
        "data_arc_in_days": 5,
        "observations_used": 25,
        "orbit_uncertainty": "8",
        "minimum_orbit_intersection": ".0510208",
        "jupiter_tisserand_invariant": "4.978",
        "epoch_osculation": "2458340.5",
        "eccentricity": ".1727687770542917",
        "semi_major_axis": "1.28185002394827",
        "inclination": "19.96130938058466",
        "ascending_node_longitude": "318.7596815531535",
        "orbital_period": "530.0956624902961",
        "perihelion_distance": "1.060386362943713",
        "perihelion_argument": "346.185817184138",
        "aphelion_distance": "1.503313684952827",
        "perihelion_time": "2458326.381880773688",
        "mean_anomaly": "9.587935312648138",
        "mean_motion": ".6791227045865331",
        "equinox": "J2000",
        "orbit_class": {
            "orbit_class_type": "AMO",
            "orbit_class_description": "Near-Earth asteroid orbits similar to that of 1221 Amor",
            "orbit_class_range": "1.017 AU < q (perihelion) < 1.3 AU"
        }
    },
    "is_sentry_object": false
}